OBJECT_NAME,OBJECT_ID,EPOCH,MEAN_MOTION,ECCENTRICITY,INCLINATION,RA_OF_ASC_NODE,ARG_OF_PERICENTER,MEAN_ANOMALY,EPHEMERIS_TYPE,CLASSIFICATION_TYPE,NORAD_CAT_ID,ELEMENT_SET_NO,REV_AT_EPOCH,BSTAR,MEAN_MOTION_DOT,MEAN_MOTION_DDOT
KUIPER-00564,2026-140AK,2026-07-08T22:00:01.999584,15.37226325,.00093899,51.8813,293.5353,275.2379,241.4582,0,U,69625,999,382,-.54034189E-3,-.20381E-3,0
KUIPER-00567,2026-140AL,2026-07-08T14:58:10.635744,15.38342732,.00130905,51.8775,294.8925,249.7779,110.1801,0,U,69626,999,453,.70891233E-3,.26992E-3,0
KUIPER-00573,2026-140AM,2026-07-08T15:15:43.771392,15.37341951,.00098367,51.8791,294.9726,262.5021,97.4849,0,U,69627,999,453,.50120433E-3,.18307E-3,0
KZ-11 R/B,2026-138H,2026-07-09T00:20:31.807392,15.36991921,.04010048,55.1536,185.2998,133.9760,229.5087,0,U,69628,999,329,.81600412E-3,.794565E-2,.965584E-5
ZHUQUE-2E DEB,2026-128D,2026-07-08T13:55:10.316928,15.76771451,.00483417,54.5332,201.8191,20.7219,339.5766,0,U,69629,999,455,.14487921E-2,.262976E-2,0
ZHUQUE-2E DEB,2026-128E,2026-07-08T12:20:49.290432,15.58675162,.0078474,54.5281,204.0708,30.4860,330.0698,0,U,69630,999,450,.15843761E-3,.1378E-3,0
ZHUQUE-2E DEB,2026-128F,2026-07-08T15:11:11.762592,15.67836924,.00611296,54.5236,202.7856,23.2350,337.1427,0,U,69631,999,453,.16939766E-2,.215091E-2,0
ZHUQUE-2E DEB,2026-128J,2026-07-07T11:42:56.672352,16.17421222,.00287472,54.5137,204.7279,55.3810,304.9951,0,U,69634,999,428,.39749262E-2,.7030403E-1,.11686213E-4
CENTISPACE-1 GROUP 05 OBJECT J,2026-138J,2026-07-08T17:52:52.516128,14.15844042,.0009154,55.1384,201.5170,330.3338,29.7117,0,U,69636,999,304,-.11235651E-3,-.376E-5,0
VICTUS HAZE PUMA,2026-142A,2026-07-08T23:52:21.728352,15.20818602,.00251476,97.4475,87.3699,289.0144,70.8367,0,U,69646,999,298,.12094877E-3,.2618E-4,0
HOKUSHIN-1,1998-067YH,2026-07-08T23:28:36.873120,15.50796899,.00060699,51.6310,192.0816,306.6599,53.3832,0,U,69648,999,303,.28572514E-3,.16356E-3,0
STARLINK-37656,2026-143A,2026-07-08T22:00:01.999584,15.49136466,.00010719,97.2856,233.7389,84.9246,83.9648,0,U,69649,999,395,.11655493E-2,.63698E-3,0
STARLINK-37646,2026-143B,2026-07-08T22:00:01.999584,15.64407049,.00017147,97.2847,233.8804,49.0431,85.2464,0,U,69650,999,395,-.26543586E-1,-.2203391E-1,0
STARLINK-37749,2026-143C,2026-07-08T22:00:01.999584,15.61730002,.00019061,97.2847,233.8795,49.1041,80.3738,0,U,69651,999,395,-.31954298E-1,-.2413067E-1,0
STARLINK-37819,2026-143D,2026-07-08T22:00:01.999584,15.58430708,.00014578,97.2849,233.8585,80.8934,352.3201,0,U,69652,999,395,-.22374555E-1,-.1515941E-1,0
STARLINK-37729,2026-143E,2026-07-08T22:00:01.999584,15.82286040,.00008114,97.2844,233.9405,176.6657,95.6193,0,U,69653,999,395,.1985255E-3,.40731E-3,0
STARLINK-37838,2026-143F,2026-07-08T22:00:01.999584,15.67473743,.00018845,97.2848,233.8960,70.8605,104.3634,0,U,69654,999,395,-.27364615E-1,-.2574016E-1,0
STARLINK-37884,2026-143G,2026-07-08T22:00:01.999584,15.54711403,.00015415,97.2859,233.8527,69.2680,351.1221,0,U,69655,999,395,-.41434213E-1,-.2400042E-1,0
STARLINK-37876,2026-143H,2026-07-08T22:00:01.999584,15.65838236,.00020018,97.2853,233.9073,68.6930,120.8453,0,U,69656,999,385,-.27533247E-1,-.2442533E-1,0
STARLINK-37784,2026-143J,2026-07-08T22:00:01.999584,15.57109199,.00017338,97.2846,233.8565,56.2936,27.8952,0,U,69657,999,385,-.15330929E-1,-.1013667E-1,0
STARLINK-37851,2026-143K,2026-07-08T22:00:01.999584,15.63979151,.00019493,97.2854,233.9087,77.7468,118.4857,0,U,69658,999,384,-.30131227E-1,-.2476454E-1,0
STARLINK-37229,2026-143L,2026-07-08T22:00:01.999584,15.61051813,.00016741,97.2849,233.8740,61.0531,53.2955,0,U,69659,999,389,-.34429879E-1,-.2516451E-1,0
STARLINK-37556,2026-143M,2026-07-08T22:00:01.999584,15.64473129,.00017498,97.2847,233.8859,60.1355,87.2679,0,U,69660,999,389,-.29798923E-1,-.2494769E-1,0
STARLINK-37867,2026-143N,2026-07-08T22:00:01.999584,15.62913874,.00017348,97.2875,233.9067,79.9576,116.0777,0,U,69661,999,385,-.16216589E-1,-.1304209E-1,0
STARLINK-37852,2026-143P,2026-07-08T22:00:01.999584,15.56238516,.00015612,97.2857,233.8515,81.0897,337.8382,0,U,69662,999,385,-.13606128E-1,-.870083E-2,0
STARLINK-37554,2026-143Q,2026-07-08T22:00:01.999584,15.61952424,.0001968,97.2852,233.8914,60.5406,94.0885,0,U,69663,999,389,-.30934256E-1,-.2363372E-1,0
STARLINK-37830,2026-143R,2026-07-08T22:00:01.999584,15.58599057,.00021134,97.2847,233.8622,61.8186,38.5855,0,U,69664,999,384,-.40393499E-1,-.2720814E-1,0
STARLINK-37837,2026-143S,2026-07-08T22:00:01.999584,15.64854241,.00020537,97.2853,233.9013,75.8315,107.7244,0,U,69665,999,385,-.29196502E-1,-.2483795E-1,0
STARLINK-37943,2026-143T,2026-07-08T22:00:01.999584,15.59994607,.00016326,97.2852,233.8670,65.2305,29.4624,0,U,69666,999,385,-.35545371E-1,-.2497023E-1,0
STARLINK-37941,2026-143U,2026-07-08T22:00:01.999584,15.61688386,.00021511,97.2850,233.8877,65.0222,85.9972,0,U,69667,999,385,-.32872377E-1,-.2470227E-1,0
