KUIPER-00564            
1 69625U 26140AK  26189.91668981 -.00020381  00000+0 -54034-3 0  9999
2 69625  51.8813 293.5353 0009389 275.2379 241.4582 15.37226325  3825
KUIPER-00567            
1 69626U 26140AL  26189.62373421  .00026992  00000+0  70891-3 0  9991
2 69626  51.8775 294.8925 0013090 249.7779 110.1801 15.38342732  4533
KUIPER-00573            
1 69627U 26140AM  26189.63592328  .00018307  00000+0  50120-3 0  9996
2 69627  51.8791 294.9726 0009836 262.5021  97.4849 15.37341951  4538
KZ-11 R/B               
1 69628U 26138H   26190.01425703  .00794565  96558-5  81600-3 0  9993
2 69628  55.1536 185.2998 0401004 133.9760 229.5087 15.36991921  3291
ZHUQUE-2E DEB           
1 69629U 26128D   26189.57998052  .00262976  00000+0  14488-2 0  9990
2 69629  54.5332 201.8191 0048341  20.7219 339.5766 15.76771451  4556
ZHUQUE-2E DEB           
1 69630U 26128E   26189.51445938  .00013780  00000+0  15844-3 0  9991
2 69630  54.5281 204.0708 0078474  30.4860 330.0698 15.58675162  4507
ZHUQUE-2E DEB           
1 69631U 26128F   26189.63277503  .00215091  00000+0  16940-2 0  9992
2 69631  54.5236 202.7856 0061129  23.2350 337.1427 15.67836924  4536
ZHUQUE-2E DEB           
1 69634U 26128J   26188.48815593  .07030403  11686-4  39749-2 0  9992
2 69634  54.5137 204.7279 0028747  55.3810 304.9951 16.17421222  4289
CENTISPACE-1 GROUP 05 O*
1 69636U 26138J   26189.74505227 -.00000376  00000+0 -11236-3 0  9991
2 69636  55.1384 201.5170 0009154 330.3338  29.7117 14.15844042  3043
VICTUS HAZE PUMA        
1 69646U 26142A   26189.99469593  .00002618  00000+0  12095-3 0  9992
2 69646  97.4475  87.3699 0025147 289.0144  70.8367 15.20818602  2981
HOKUSHIN-1              
1 69648U 98067YH  26189.97820455  .00016356  00000+0  28573-3 0  9997
2 69648  51.6310 192.0816 0006069 306.6599  53.3832 15.50796899  3036
STARLINK-37656          
1 69649U 26143A   26189.91668981  .00063698  00000+0  11655-2 0  9995
2 69649  97.2856 233.7389 0001071  84.9246  83.9648 15.49136466  3950
STARLINK-37646          
1 69650U 26143B   26189.91668981 -.02203391  00000+0 -26544-1 0  9999
2 69650  97.2847 233.8804 0001714  49.0431  85.2464 15.64407049  3953
STARLINK-37749          
1 69651U 26143C   26189.91668981 -.02413067  00000+0 -31954-1 0  9994
2 69651  97.2847 233.8795 0001906  49.1041  80.3738 15.61730002  3959
STARLINK-37819          
1 69652U 26143D   26189.91668981 -.01515941  00000+0 -22375-1 0  9995
2 69652  97.2849 233.8585 0001457  80.8934 352.3201 15.58430708  3956
STARLINK-37729          
1 69653U 26143E   26189.91668981  .00040731  00000+0  19853-3 0  9992
2 69653  97.2844 233.9405 0000811 176.6657  95.6193 15.82286040  3955
STARLINK-37838          
1 69654U 26143F   26189.91668981 -.02574016  00000+0 -27365-1 0  9990
2 69654  97.2848 233.8960 0001884  70.8605 104.3634 15.67473743  3953
STARLINK-37884          
1 69655U 26143G   26189.91668981 -.02400042  00000+0 -41434-1 0  9991
2 69655  97.2859 233.8527 0001541  69.2680 351.1221 15.54711403  3958
STARLINK-37876          
1 69656U 26143H   26189.91668981 -.02442533  00000+0 -27533-1 0  9997
2 69656  97.2853 233.9073 0002001  68.6930 120.8453 15.65838236  3856
STARLINK-37784          
1 69657U 26143J   26189.91668981 -.01013667  00000+0 -15331-1 0  9992
2 69657  97.2846 233.8565 0001733  56.2936  27.8952 15.57109199  3854
STARLINK-37851          
1 69658U 26143K   26189.91668981 -.02476454  00000+0 -30131-1 0  9996
2 69658  97.2854 233.9087 0001949  77.7468 118.4857 15.63979151  3841
STARLINK-37229          
1 69659U 26143L   26189.91668981 -.02516451  00000+0 -34430-1 0  9995
2 69659  97.2849 233.8740 0001674  61.0531  53.2955 15.61051813  3897
STARLINK-37556          
1 69660U 26143M   26189.91668981 -.02494769  00000+0 -29799-1 0  9996
2 69660  97.2847 233.8859 0001749  60.1355  87.2679 15.64473129  3896
STARLINK-37867          
1 69661U 26143N   26189.91668981 -.01304209  00000+0 -16217-1 0  9996
2 69661  97.2875 233.9067 0001734  79.9576 116.0777 15.62913874  3857
STARLINK-37852          
1 69662U 26143P   26189.91668981 -.00870083  00000+0 -13606-1 0  9993
2 69662  97.2857 233.8515 0001561  81.0897 337.8382 15.56238516  3854
STARLINK-37554          
1 69663U 26143Q   26189.91668981 -.02363372  00000+0 -30934-1 0  9997
2 69663  97.2852 233.8914 0001968  60.5406  94.0885 15.61952424  3893
STARLINK-37830          
1 69664U 26143R   26189.91668981 -.02720814  00000+0 -40393-1 0  9996
2 69664  97.2847 233.8622 0002113  61.8186  38.5855 15.58599057  3846
STARLINK-37837          
1 69665U 26143S   26189.91668981 -.02483795  00000+0 -29197-1 0  9990
2 69665  97.2853 233.9013 0002053  75.8315 107.7244 15.64854241  3859
STARLINK-37943          
1 69666U 26143T   26189.91668981 -.02497023  00000+0 -35545-1 0  9994
2 69666  97.2852 233.8670 0001632  65.2305  29.4624 15.59994607  3858
STARLINK-37941          
1 69667U 26143U   26189.91668981 -.02470227  00000+0 -32872-1 0  9992
2 69667  97.2850 233.8877 0002151  65.0222  85.9972 15.61688386  3859
